AMC-15                  
1 28446U 04041A   26094.22672668 -.00000089  00000+0  00000+0 0  9999
2 28446   0.0505  49.4881 0002235 324.6186 155.0137  1.00272345 78564
SL-12 R/B(2)            
1 28466U 04043D   26094.61942328 -.00000230  00000+0  00000+0 0  9997
2 28466  13.1463  17.0035 0006902 165.4046  24.5022  1.00160412 78370
NSS-10                  
1 28526U 05003A   26094.22197449 -.00000250  00000+0  00000+0 0  9996
2 28526   6.2653  71.3359 0003246 300.3369 223.3295  1.00272043 52411
INMARSAT 4-F1           
1 28628U 05009A   26094.17128208  .00000034  00000+0  00000+0 0  9995
2 28628   5.0691  42.7079 0003694 353.4218  36.1234  1.00272228 76934
SL-12 R/B(2)            
1 28634U 05010F   26093.87475339  .00000053  00000+0  00000+0 0  9991
2 28634  13.0472  18.9607 0022797 267.7432 277.7390  1.00221332 76957
DIRECTV 8               
1 28659U 05019A   26094.22395333  .00000001  00000+0  00000+0 0  9995
2 28659   0.0215 114.1398 0003378 273.4781 126.4960  1.00272057 76331
GALAXY 28 (G-28)        
1 28702U 05022A   26094.21642233 -.00000199  00000+0  00000+0 0  9990
2 28702   3.1082  79.8326 0002274 300.2351 223.2857  1.00270718 51235
THAICOM 4               
1 28786U 05028A   26094.05729267 -.00000363  00000+0  00000+0 0  9996
2 28786   0.0595  81.2728 0002311 316.8236 294.4130  1.00283073 51504
ANIK F1R                
1 28868U 05036A   26094.08363944 -.00000074  00000+0  00000+0 0  9994
2 28868   4.1236  77.4851 0003211 312.1938  85.5289  1.00271996 45715
SYRACUSE 3A             
1 28885U 05041B   26094.24350380  .00000132  00000+0  00000+0 0  9991
2 28885   4.4552  76.7360 0003710 296.8084 312.8705  1.00272780 75005
INMARSAT 4-F2           
1 28899U 05044A   26094.25044443 -.00000259  00000+0  00000+0 0  9991
2 28899   4.9990  43.7841 0003358 350.2275  32.2080  1.00271646 74787
METEOSAT-9 (MSG-2)      
1 28912U 05049B   26093.97140566  .00000126  00000+0  00000+0 0  9995
2 28912   9.1959  54.8826 0000594  40.9643 131.8166  1.00273367  6252
EUTELSAT 174A           
1 28924U 05052A   26094.21069329  .00000011  00000+0  00000+0 0  9990
2 28924   4.0324  77.4236 0006524 300.7677  64.2054  1.00274704 51592
ECHOSTAR 10             
1 28935U 06003A   26094.22568667 -.00000056  00000+0  00000+0 0  9999
2 28935   0.0474  45.4008 0001400 323.4013 154.7867  1.00272583 73721
SPAINSAT                
1 28945U 06007A   26093.55091647 -.00000219  00000+0  00000+0 0  9999
2 28945   0.3703  87.8208 0004786 299.5050 332.6900  1.00272139 73470
EKRAN 2 DEB             
1 29014U 77092K   26094.19683726  .00000126  00000+0  00000+0 0  9991
2 29014   4.3238 275.2875 0020030 347.9154 203.9135  1.00133232 46538
JCSAT-5A                
1 29045U 06010A   26094.25600255 -.00000327  00000+0  00000+0 0  9994
2 29045   0.9177  85.0585 0001964 331.3559   0.3724  1.00273639 73025
