[{"OBJECT_NAME":"AMC-15","OBJECT_ID":"2004-041A","EPOCH":"2026-04-04T05:26:29.185152","MEAN_MOTION":1.00272345,"ECCENTRICITY":0.00022359,"INCLINATION":0.0505,"RA_OF_ASC_NODE":49.4881,"ARG_OF_PERICENTER":324.6186,"MEAN_ANOMALY":155.0137,"EPHEMERIS_TYPE":0,"CLASSIFICATION_TYPE":"U","NORAD_CAT_ID":28446,"ELEMENT_SET_NO":999,"REV_AT_EPOCH":7856,"BSTAR":0,"MEAN_MOTION_DOT":-8.9e-7,"MEAN_MOTION_DDOT":0},{"OBJECT_NAME":"SL-12 R/B(2)","OBJECT_ID":"2004-043D","EPOCH":"2026-04-04T14:51:58.171392","MEAN_MOTION":1.00160412,"ECCENTRICITY":0.0006902,"INCLINATION":13.1463,"RA_OF_ASC_NODE":17.0035,"ARG_OF_PERICENTER":165.4046,"MEAN_ANOMALY":24.5022,"EPHEMERIS_TYPE":0,"CLASSIFICATION_TYPE":"U","NORAD_CAT_ID":28466,"ELEMENT_SET_NO":999,"REV_AT_EPOCH":7837,"BSTAR":0,"MEAN_MOTION_DOT":-2.3e-6,"MEAN_MOTION_DDOT":0},{"OBJECT_NAME":"NSS-10","OBJECT_ID":"2005-003A","EPOCH":"2026-04-04T05:19:38.595936","MEAN_MOTION":1.00272043,"ECCENTRICITY":0.00032464,"INCLINATION":6.2653,"RA_OF_ASC_NODE":71.3359,"ARG_OF_PERICENTER":300.3369,"MEAN_ANOMALY":223.3295,"EPHEMERIS_TYPE":0,"CLASSIFICATION_TYPE":"U","NORAD_CAT_ID":28526,"ELEMENT_SET_NO":999,"REV_AT_EPOCH":5241,"BSTAR":0,"MEAN_MOTION_DOT":-2.5e-6,"MEAN_MOTION_DDOT":0},{"OBJECT_NAME":"INMARSAT 4-F1","OBJECT_ID":"2005-009A","EPOCH":"2026-04-04T04:06:38.771712","MEAN_MOTION":1.00272228,"ECCENTRICITY":0.00036946,"INCLINATION":5.0691,"RA_OF_ASC_NODE":42.7079,"ARG_OF_PERICENTER":353.4218,"MEAN_ANOMALY":36.1234,"EPHEMERIS_TYPE":0,"CLASSIFICATION_TYPE":"U","NORAD_CAT_ID":28628,"ELEMENT_SET_NO":999,"REV_AT_EPOCH":7693,"BSTAR":0,"MEAN_MOTION_DOT":3.4e-7,"MEAN_MOTION_DDOT":0},{"OBJECT_NAME":"SL-12 R/B(2)","OBJECT_ID":"2005-010F","EPOCH":"2026-04-03T20:59:38.692896","MEAN_MOTION":1.00221332,"ECCENTRICITY":0.00227979,"INCLINATION":13.0472,"RA_OF_ASC_NODE":18.9607,"ARG_OF_PERICENTER":267.7432,"MEAN_ANOMALY":277.739,"EPHEMERIS_TYPE":0,"CLASSIFICATION_TYPE":"U","NORAD_CAT_ID":28634,"ELEMENT_SET_NO":999,"REV_AT_EPOCH":7695,"BSTAR":0,"MEAN_MOTION_DOT":5.3e-7,"MEAN_MOTION_DDOT":0},{"OBJECT_NAME":"DIRECTV 8","OBJECT_ID":"2005-019A","EPOCH":"2026-04-04T05:22:29.567712","MEAN_MOTION":1.00272057,"ECCENTRICITY":0.00033787,"INCLINATION":0.0215,"RA_OF_ASC_NODE":114.1398,"ARG_OF_PERICENTER":273.4781,"MEAN_ANOMALY":126.496,"EPHEMERIS_TYPE":0,"CLASSIFICATION_TYPE":"U","NORAD_CAT_ID":28659,"ELEMENT_SET_NO":999,"REV_AT_EPOCH":7633,"BSTAR":0,"MEAN_MOTION_DOT":1.0e-8,"MEAN_MOTION_DDOT":0},{"OBJECT_NAME":"GALAXY 28 (G-28)","OBJECT_ID":"2005-022A","EPOCH":"2026-04-04T05:11:38.889312","MEAN_MOTION":1.00270718,"ECCENTRICITY":0.00022741,"INCLINATION":3.1082,"RA_OF_ASC_NODE":79.8326,"ARG_OF_PERICENTER":300.2351,"MEAN_ANOMALY":223.2857,"EPHEMERIS_TYPE":0,"CLASSIFICATION_TYPE":"U","NORAD_CAT_ID":28702,"ELEMENT_SET_NO":999,"REV_AT_EPOCH":5123,"BSTAR":0,"MEAN_MOTION_DOT":-1.99e-6,"MEAN_MOTION_DDOT":0},{"OBJECT_NAME":"THAICOM 4","OBJECT_ID":"2005-028A","EPOCH":"2026-04-04T01:22:30.086688","MEAN_MOTION":1.00283073,"ECCENTRICITY":0.00023112,"INCLINATION":0.0595,"RA_OF_ASC_NODE":81.2728,"ARG_OF_PERICENTER":316.8236,"MEAN_ANOMALY":294.413,"EPHEMERIS_TYPE":0,"CLASSIFICATION_TYPE":"U","NORAD_CAT_ID":28786,"ELEMENT_SET_NO":999,"REV_AT_EPOCH":5150,"BSTAR":0,"MEAN_MOTION_DOT":-3.63e-6,"MEAN_MOTION_DDOT":0},{"OBJECT_NAME":"ANIK F1R","OBJECT_ID":"2005-036A","EPOCH":"2026-04-04T02:00:26.447616","MEAN_MOTION":1.00271996,"ECCENTRICITY":0.00032118,"INCLINATION":4.1236,"RA_OF_ASC_NODE":77.4851,"ARG_OF_PERICENTER":312.1938,"MEAN_ANOMALY":85.5289,"EPHEMERIS_TYPE":0,"CLASSIFICATION_TYPE":"U","NORAD_CAT_ID":28868,"ELEMENT_SET_NO":999,"REV_AT_EPOCH":4571,"BSTAR":0,"MEAN_MOTION_DOT":-7.4e-7,"MEAN_MOTION_DDOT":0},{"OBJECT_NAME":"SYRACUSE 3A","OBJECT_ID":"2005-041B","EPOCH":"2026-04-04T05:50:38.728320","MEAN_MOTION":1.0027278,"ECCENTRICITY":0.00037103,"INCLINATION":4.4552,"RA_OF_ASC_NODE":76.736,"ARG_OF_PERICENTER":296.8084,"MEAN_ANOMALY":312.8705,"EPHEMERIS_TYPE":0,"CLASSIFICATION_TYPE":"U","NORAD_CAT_ID":28885,"ELEMENT_SET_NO":999,"REV_AT_EPOCH":7500,"BSTAR":0,"MEAN_MOTION_DOT":1.32e-6,"MEAN_MOTION_DDOT":0},{"OBJECT_NAME":"INMARSAT 4-F2","OBJECT_ID":"2005-044A","EPOCH":"2026-04-04T06:00:38.398752","MEAN_MOTION":1.00271646,"ECCENTRICITY":0.00033589,"INCLINATION":4.999,"RA_OF_ASC_NODE":43.7841,"ARG_OF_PERICENTER":350.2275,"MEAN_ANOMALY":32.208,"EPHEMERIS_TYPE":0,"CLASSIFICATION_TYPE":"U","NORAD_CAT_ID":28899,"ELEMENT_SET_NO":999,"REV_AT_EPOCH":7478,"BSTAR":0,"MEAN_MOTION_DOT":-2.59e-6,"MEAN_MOTION_DDOT":0},{"OBJECT_NAME":"METEOSAT-9 (MSG-2)","OBJECT_ID":"2005-049B","EPOCH":"2026-04-03T23:18:49.449024","MEAN_MOTION":1.00273367,"ECCENTRICITY":5.947e-5,"INCLINATION":9.1959,"RA_OF_ASC_NODE":54.8826,"ARG_OF_PERICENTER":40.9643,"MEAN_ANOMALY":131.8166,"EPHEMERIS_TYPE":0,"CLASSIFICATION_TYPE":"U","NORAD_CAT_ID":28912,"ELEMENT_SET_NO":999,"REV_AT_EPOCH":625,"BSTAR":0,"MEAN_MOTION_DOT":1.26e-6,"MEAN_MOTION_DDOT":0},{"OBJECT_NAME":"EUTELSAT 174A","OBJECT_ID":"2005-052A","EPOCH":"2026-04-04T05:03:23.900256","MEAN_MOTION":1.00274704,"ECCENTRICITY":0.00065241,"INCLINATION":4.0324,"RA_OF_ASC_NODE":77.4236,"ARG_OF_PERICENTER":300.7677,"MEAN_ANOMALY":64.2054,"EPHEMERIS_TYPE":0,"CLASSIFICATION_TYPE":"U","NORAD_CAT_ID":28924,"ELEMENT_SET_NO":999,"REV_AT_EPOCH":5159,"BSTAR":0,"MEAN_MOTION_DOT":1.1e-7,"MEAN_MOTION_DDOT":0},{"OBJECT_NAME":"ECHOSTAR 10","OBJECT_ID":"2006-003A","EPOCH":"2026-04-04T05:24:59.328288","MEAN_MOTION":1.00272583,"ECCENTRICITY":0.00014007,"INCLINATION":0.0474,"RA_OF_ASC_NODE":45.4008,"ARG_OF_PERICENTER":323.4013,"MEAN_ANOMALY":154.7867,"EPHEMERIS_TYPE":0,"CLASSIFICATION_TYPE":"U","NORAD_CAT_ID":28935,"ELEMENT_SET_NO":999,"REV_AT_EPOCH":7372,"BSTAR":0,"MEAN_MOTION_DOT":-5.6e-7,"MEAN_MOTION_DDOT":0},{"OBJECT_NAME":"SPAINSAT","OBJECT_ID":"2006-007A","EPOCH":"2026-04-03T13:13:19.183008","MEAN_MOTION":1.00272139,"ECCENTRICITY":0.00047867,"INCLINATION":0.3703,"RA_OF_ASC_NODE":87.8208,"ARG_OF_PERICENTER":299.505,"MEAN_ANOMALY":332.69,"EPHEMERIS_TYPE":0,"CLASSIFICATION_TYPE":"U","NORAD_CAT_ID":28945,"ELEMENT_SET_NO":999,"REV_AT_EPOCH":7347,"BSTAR":0,"MEAN_MOTION_DOT":-2.19e-6,"MEAN_MOTION_DDOT":0},{"OBJECT_NAME":"EKRAN 2 DEB","OBJECT_ID":"1977-092K","EPOCH":"2026-04-04T04:43:26.739264","MEAN_MOTION":1.00133232,"ECCENTRICITY":0.00200304,"INCLINATION":4.3238,"RA_OF_ASC_NODE":275.2875,"ARG_OF_PERICENTER":347.9154,"MEAN_ANOMALY":203.9135,"EPHEMERIS_TYPE":0,"CLASSIFICATION_TYPE":"U","NORAD_CAT_ID":29014,"ELEMENT_SET_NO":999,"REV_AT_EPOCH":4653,"BSTAR":0,"MEAN_MOTION_DOT":1.26e-6,"MEAN_MOTION_DDOT":0},{"OBJECT_NAME":"JCSAT-5A","OBJECT_ID":"2006-010A","EPOCH":"2026-04-04T06:08:38.620320","MEAN_MOTION":1.00273639,"ECCENTRICITY":0.00019649,"INCLINATION":0.9177,"RA_OF_ASC_NODE":85.0585,"ARG_OF_PERICENTER":331.3559,"MEAN_ANOMALY":0.3724,"EPHEMERIS_TYPE":0,"CLASSIFICATION_TYPE":"U","NORAD_CAT_ID":29045,"ELEMENT_SET_NO":999,"REV_AT_EPOCH":7302,"BSTAR":0,"MEAN_MOTION_DOT":-3.27e-6,"MEAN_MOTION_DDOT":0}]
